OBJECT_NAME,OBJECT_ID,EPOCH,MEAN_MOTION,ECCENTRICITY,INCLINATION,RA_OF_ASC_NODE,ARG_OF_PERICENTER,MEAN_ANOMALY,EPHEMERIS_TYPE,CLASSIFICATION_TYPE,NORAD_CAT_ID,ELEMENT_SET_NO,REV_AT_EPOCH,BSTAR,MEAN_MOTION_DOT,MEAN_MOTION_DDOT
DUBAISAT-1,2009-041B,2026-06-11T09:23:16.958400,14.75114193,.0011741,98.0044,295.7128,90.1964,270.0590,0,U,35682,999,90424,.10044E-3,.627E-5,0
OCEANSAT-2,2009-051A,2026-06-11T21:49:49.375200,13.99664739,.0014826,98.2324,150.2875,252.1067,107.8483,0,U,35931,999,87859,.28382E-4,.4E-7,0
WORLDVIEW-2 (WV-2),2009-055A,2026-06-11T19:20:09.811104,14.37897790,.0003408,98.4736,236.3293,227.0758,133.0143,0,U,35946,999,87487,.40192E-4,.78E-6,0
SMOS,2009-059A,2026-06-11T11:46:52.337856,14.39769543,.0001319,98.4425,349.9093,88.8797,271.2542,0,U,36036,999,87263,.8482E-4,.222E-5,0
YAOGAN-7,2009-069A,2026-06-11T16:08:51.893376,14.78004346,.0025845,98.0080,48.5737,58.7619,301.6119,0,U,36110,999,88881,.66393E-4,.429E-5,0
TANDEM-X,2010-030A,2026-06-09T06:54:02.839104,15.19149708,.00019024,97.4454,168.1075,90.0350,270.1102,0,U,36605,999,88544,.40127109E-4,.776E-5,0
CARTOSAT-2B,2010-035A,2026-06-11T18:58:40.440576,14.78655233,.0010708,97.9959,213.3750,201.9048,158.1706,0,U,36795,999,85905,.97989E-4,.666E-5,0
YAOGAN-10,2010-038A,2026-06-11T21:44:11.056128,14.85331914,.0001656,97.8984,186.3519,90.4163,30.2654,0,U,36834,999,85642,.17485E-3,.1449E-4,0
COSMO-SKYMED 4,2010-060A,2026-06-11T20:10:07.858272,14.82148520,.0001408,97.8890,346.5182,79.2352,280.9020,0,U,37216,999,84377,.29897E-4,.186E-5,0
RESOURCESAT-2,2011-015A,2026-06-11T19:26:50.800416,14.21605248,.0010127,98.7644,230.2891,272.8327,87.1691,0,U,37387,999,78541,.40877E-4,.45E-6,0
HAIYANG-2A,2011-043A,2026-06-11T20:52:39.373824,13.74457665,.0006187,99.3396,165.6631,101.4086,258.7758,0,U,37781,999,74592,-.18656E-3,-.22E-5,0
RASAT,2011-044D,2026-06-11T20:55:41.812608,14.68161992,.0019799,98.0568,254.3499,206.0952,270.8715,0,U,37791,999,79240,.10862E-3,.577E-5,0
SRMSAT,2011-058D,2026-06-11T12:22:46.149888,14.11574372,.0011909,19.9715,93.7945,141.4141,27.1536,0,U,37841,999,75701,.48954E-4,.355E-5,0
PLEIADES 1A,2011-076F,2026-06-11T20:34:24.879360,14.58567283,.0001567,98.1975,238.0315,96.8497,37.6750,0,U,38012,999,77121,.41845E-4,.149E-5,0
ZIYUAN 1-02C (ZY 1-02C),2011-079A,2026-06-11T20:53:21.539616,14.38210232,.0005838,98.4074,230.2898,334.6997,152.5703,0,U,38038,999,75844,.10211E-3,.267E-5,0
ARIRANG-3 (KOMPSAT-3),2012-025B,2026-06-11T21:36:35.250336,14.62201567,.000647,98.1175,120.4517,122.7900,237.3925,0,U,38338,999,75057,.80557E-4,.359E-5,0
EXACTVIEW-1 (ADS-1B),2012-039C,2026-06-11T13:16:47.869248,14.24982965,.0010859,98.9771,279.8164,182.3733,177.7396,0,U,38709,999,72190,.58582E-4,.91E-6,0
SPOT 6,2012-047A,2026-06-11T20:19:34.410720,14.58559431,.0001445,98.2122,230.2182,91.4508,268.6856,0,U,38755,999,73227,.39631E-4,.138E-5,0
PLEIADES 1B,2012-068A,2026-06-11T20:46:48.041184,14.58557236,.0001616,98.1946,237.9906,93.4223,266.7161,0,U,39019,999,72007,.53926E-4,.205E-5,0
GOKTURK 2,2012-073A,2026-06-11T20:37:13.405152,14.75539421,.0001814,97.6829,0.5582,58.2826,301.8561,0,U,39030,999,72372,.14821E-3,.962E-5,0
LANDSAT 8,2013-008A,2026-06-11T19:20:19.703904,14.57090861,.0001375,98.2302,233.0048,93.1987,266.9369,0,U,39084,999,69711,.59661E-4,.223E-5,0
SARAL,2013-009A,2026-06-11T19:17:11.817600,14.32854605,.0000992,98.5557,349.4391,338.8832,21.2311,0,U,39086,999,69483,.462E-4,.82E-6,0
GAOFEN-1,2013-018A,2026-06-11T20:16:41.565792,14.76531078,.0015751,97.9096,235.0211,285.3082,74.6387,0,U,39150,999,70745,.35878E-4,.199E-5,0
VNREDSAT 1,2013-021B,2026-06-11T19:54:16.939872,14.64850745,.000166,97.9085,216.4513,89.1220,271.0174,0,U,39160,999,69950,.76616E-4,.364E-5,0
ARIRANG-5 (KOMPSAT-5),2013-042A,2026-06-11T18:41:30.174144,15.04478541,.0004839,97.6217,349.5561,134.8309,225.3311,0,U,39227,999,70304,.1214E-3,.1638E-4,0
SKYSAT-A,2013-066C,2026-06-11T16:50:34.749312,15.12945250,.0020581,97.3820,212.2735,337.4555,22.5770,0,U,39418,999,68765,.14845E-3,.2565E-4,0
DUBAISAT-2,2013-066D,2026-06-11T21:39:38.825280,15.10144898,.0012766,97.4566,153.1848,56.8906,303.3547,0,U,39419,999,68559,.23776E-3,.3823E-4,0
GPM-CORE,2014-009C,2026-06-11T20:02:38.802048,15.44453337,.001211,64.9721,326.0501,249.5079,110.4762,0,U,39574,999,69698,.23894E-3,.1091E-3,0
SENTINEL-1A,2014-016A,2026-06-10T12:14:54.640032,14.59199013,.00014362,98.1783,169.1406,80.9924,279.1438,0,U,39634,999,64904,.70739944E-4,.288E-5,0
KAZEOSAT 1,2014-024A,2026-06-11T19:37:41.711232,14.42077450,.0001446,98.3206,235.3985,75.1093,285.0257,0,U,39731,999,63778,.13171E-4,.1E-7,0
ALOS-2,2014-029A,2026-06-11T20:43:53.185728,14.79471849,.0001627,97.9211,260.1035,89.3852,270.7546,0,U,39766,999,65079,.13447E-3,.953E-5,0
