DUBAISAT-1              
1 35682U 09041B   26162.39116850  .00000627  00000+0  10044-3 0  9994
2 35682  98.0044 295.7128 0011741  90.1964 270.0590 14.75114193904246
OCEANSAT-2              
1 35931U 09051A   26162.90959925  .00000004  00000+0  28382-4 0  9991
2 35931  98.2324 150.2875 0014826 252.1067 107.8483 13.99664739878598
WORLDVIEW-2 (WV-2)      
1 35946U 09055A   26162.80566911  .00000078  00000+0  40192-4 0  9993
2 35946  98.4736 236.3293 0003408 227.0758 133.0143 14.37897790874874
SMOS                    
1 36036U 09059A   26162.49088354  .00000222  00000+0  84820-4 0  9990
2 36036  98.4425 349.9093 0001319  88.8797 271.2542 14.39769543872630
YAOGAN-7                
1 36110U 09069A   26162.67282284  .00000429  00000+0  66393-4 0  9996
2 36110  98.0080  48.5737 0025845  58.7619 301.6119 14.78004346888813
TANDEM-X                
1 36605U 10030A   26160.28753286  .00000776  00000+0  40127-4 0  9997
2 36605  97.4454 168.1075 0001902  90.0350 270.1102 15.19149708885449
CARTOSAT-2B             
1 36795U 10035A   26162.79074584  .00000666  00000+0  97989-4 0  9993
2 36795  97.9959 213.3750 0010708 201.9048 158.1706 14.78655233859050
YAOGAN-10               
1 36834U 10038A   26162.90568352  .00001449  00000+0  17485-3 0  9996
2 36834  97.8984 186.3519 0001656  90.4163  30.2654 14.85331914856429
COSMO-SKYMED 4          
1 37216U 10060A   26162.84036873  .00000186  00000+0  29897-4 0  9995
2 37216  97.8890 346.5182 0001408  79.2352 280.9020 14.82148520843777
RESOURCESAT-2           
1 37387U 11015A   26162.81031019  .00000045  00000+0  40877-4 0  9994
2 37387  98.7644 230.2891 0010127 272.8327  87.1691 14.21605248785415
HAIYANG-2A              
1 37781U 11043A   26162.86990016 -.00000220  00000+0 -18656-3 0  9995
2 37781  99.3396 165.6631 0006187 101.4086 258.7758 13.74457665745924
RASAT                   
1 37791U 11044D   26162.87201172  .00000577  00000+0  10862-3 0  9990
2 37791  98.0568 254.3499 0019799 206.0952 270.8715 14.68161992792409
SRMSAT                  
1 37841U 11058D   26162.51581192  .00000355  00000+0  48954-4 0  9993
2 37841  19.9715  93.7945 0011909 141.4141  27.1536 14.11574372757019
PLEIADES 1A             
1 38012U 11076F   26162.85723240  .00000149  00000+0  41845-4 0  9996
2 38012  98.1975 238.0315 0001567  96.8497  37.6750 14.58567283771214
ZIYUAN 1-02C (ZY 1-02C) 
1 38038U 11079A   26162.87038819  .00000267  00000+0  10211-3 0  9993
2 38038  98.4074 230.2898 0005838 334.6997 152.5703 14.38210232758440
ARIRANG-3 (KOMPSAT-3)   
1 38338U 12025B   26162.90040799  .00000359  00000+0  80557-4 0  9995
2 38338  98.1175 120.4517 0006470 122.7900 237.3925 14.62201567750575
EXACTVIEW-1 (ADS-1B)    
1 38709U 12039C   26162.55333182  .00000091  00000+0  58582-4 0  9990
2 38709  98.9771 279.8164 0010859 182.3733 177.7396 14.24982965721906
SPOT 6                  
1 38755U 12047A   26162.84692605  .00000138  00000+0  39631-4 0  9996
2 38755  98.2122 230.2182 0001445  91.4508 268.6856 14.58559431732270
PLEIADES 1B             
1 39019U 12068A   26162.86583381  .00000205  00000+0  53926-4 0  9993
2 39019  98.1946 237.9906 0001616  93.4223 266.7161 14.58557236720075
GOKTURK 2               
1 39030U 12073A   26162.85918293  .00000962  00000+0  14821-3 0  9995
2 39030  97.6829   0.5582 0001814  58.2826 301.8561 14.75539421723729
LANDSAT 8               
1 39084U 13008A   26162.80578361  .00000223  00000+0  59661-4 0  9998
2 39084  98.2302 233.0048 0001375  93.1987 266.9369 14.57090861697119
SARAL                   
1 39086U 13009A   26162.80360900  .00000082  00000+0  46200-4 0  9997
2 39086  98.5557 349.4391 0000992 338.8832  21.2311 14.32854605694833
GAOFEN-1                
1 39150U 13018A   26162.84492553  .00000199  00000+0  35878-4 0  9991
2 39150  97.9096 235.0211 0015751 285.3082  74.6387 14.76531078707451
VNREDSAT 1              
1 39160U 13021B   26162.82936273  .00000364  00000+0  76616-4 0  9995
2 39160  97.9085 216.4513 0001660  89.1220 271.0174 14.64850745699501
ARIRANG-5 (KOMPSAT-5)   
1 39227U 13042A   26162.77882146  .00001638  00000+0  12140-3 0  9991
2 39227  97.6217 349.5561 0004839 134.8309 225.3311 15.04478541703042
SKYSAT-A                
1 39418U 13066C   26162.70179108  .00002565  00000+0  14845-3 0  9993
2 39418  97.3820 212.2735 0020581 337.4555  22.5770 15.12945250687655
DUBAISAT-2              
1 39419U 13066D   26162.90253270  .00003823  00000+0  23776-3 0  9990
2 39419  97.4566 153.1848 0012766  56.8906 303.3547 15.10144898685590
GPM-CORE                
1 39574U 14009C   26162.83517132  .00010910  00000+0  23894-3 0  9998
2 39574  64.9721 326.0501 0012110 249.5079 110.4762 15.44453337696985
SENTINEL-1A             
1 39634U 14016A   26161.51035463  .00000288  00000+0  70740-4 0  9999
2 39634  98.1783 169.1406 0001436  80.9924 279.1438 14.59199013649045
KAZEOSAT 1              
1 39731U 14024A   26162.81784388  .00000001  00000+0  13171-4 0  9995
2 39731  98.3206 235.3985 0001446  75.1093 285.0257 14.42077450637782
ALOS-2                  
1 39766U 14029A   26162.86381002  .00000953  00000+0  13447-3 0  9990
2 39766  97.9211 260.1035 0001627  89.3852 270.7546 14.79471849650792
